NORAD_CAT_ID,OBJECT_NAME,OBJECT_TYPE,EPOCH,MEAN_MOTION,ECCENTRICITY,INCLINATION,RA_OF_ASC_NODE,ARG_OF_PERICENTER,MEAN_ANOMALY,BSTAR,MEAN_MOTION_DOT,MEAN_MOTION_DDOT,TLE_LINE0,TLE_LINE1,TLE_LINE2,SEMIMAJOR_AXIS,PERIOD,APOGEE,PERIGEE,DECAYED
51884.0,STARLINK-3577,PAYLOAD,2023-02-08 10:11:30,15.08879786,0.0001487,53.2177,10.6331,91.7071,268.4092,0.0025948,0.00041296,0.0,0 STARLINK-3577,1 51884U 22022AJ  23039.42465870  .00041296  00000-0  25948-2 0  9999,2 51884  53.2177  10.6331 0001487  91.7071 268.4092 15.08879786 53459,6917.759,95.435,540.652,538.595,0.0
51884.0,STARLINK-3577,PAYLOAD,2023-02-09 05:16:08,15.08851213,0.0001497,53.2181,7.0644,113.4112,246.7037,0.0020843,0.0003305,0.0,0 STARLINK-3577,1 51884U 22022AJ  23040.21954499  .00033050  00000-0  20843-2 0  9996,2 51884  53.2181   7.0644 0001497 113.4112 246.7037 15.08851213 53576,6917.846,95.437,540.747,538.676,0.0
51884.0,STARLINK-3577,PAYLOAD,2023-02-09 10:02:17,15.08867022,0.0001452,53.2177,6.1723,102.3885,257.7269,0.0023974,0.00038101,0.0,0 STARLINK-3577,1 51884U 22022AJ  23040.41826315  .00038101  00000-0  23974-2 0  9993,2 51884  53.2177   6.1723 0001452 102.3885 257.7269 15.08867022 53602,6917.798,95.436,540.667,538.658,0.0
51884.0,STARLINK-3577,PAYLOAD,2023-02-09 14:48:27,15.08831061,0.0001431,53.2182,5.2803,100.3391,259.7762,0.00024507,3.614e-05,0.0,0 STARLINK-3577,1 51884U 22022AJ  23040.61698827  .00003614  00000-0  24507-3 0  9995,2 51884  53.2182   5.2803 0001431 100.3391 259.7762 15.08831061 53631,6917.908,95.438,540.763,538.783,0.0
51884.0,STARLINK-3577,PAYLOAD,2023-02-10 03:31:32,15.08855592,0.0001077,53.2182,2.9022,106.7771,253.334,0.0023947,0.00038046,0.0,0 STARLINK-3577,1 51884U 22022AJ  23041.14690873  .00038046  00000-0  23947-2 0  9990,2 51884  53.2182   2.9022 0001077 106.7771 253.3340 15.08855592 53712,6917.833,95.437,540.443,538.953,0.0
51884.0,STARLINK-3577,PAYLOAD,2023-02-10 05:06:55,15.08876283,0.0001418,53.2174,2.605,98.4204,261.6949,0.003619,0.00057839,0.0,0 STARLINK-3577,1 51884U 22022AJ  23041.21314742  .00057839  00000-0  36190-2 0  9991,2 51884  53.2174   2.6050 0001418  98.4204 261.6949 15.08876283 53726,6917.769,95.435,540.615,538.654,0.0
51884.0,STARLINK-3577,PAYLOAD,2023-02-11 03:22:19,15.08867749,0.0001172,53.2173,358.4417,127.4117,232.6982,0.0027273,0.00043418,0.0,0 STARLINK-3577,1 51884U 22022AJ  23042.14050314  .00043418  00000-0  27273-2 0  9996,2 51884  53.2173 358.4417 0001172 127.4117 232.6982 15.08867749 53864,6917.796,95.436,540.471,538.85,0.0
51884.0,STARLINK-3577,PAYLOAD,2023-02-12 03:13:07,15.08886656,0.0001296,53.217,353.9817,98.3979,261.716,0.0034349,0.00054874,0.0,0 STARLINK-3577,1 51884U 22022AJ  23043.13411014  .00054874  00000-0  34349-2 0  9994,2 51884  53.2170 353.9817 0001296  98.3979 261.7160 15.08886656 54011,6917.738,95.435,540.499,538.706,0.0
51884.0,STARLINK-3577,PAYLOAD,2023-02-12 07:59:16,15.088692,0.0001068,53.2175,353.0889,92.0925,268.0189,0.0017184,0.00027188,0.0,0 STARLINK-3577,1 51884U 22022AJ  23043.33282688  .00027188  00000-0  17184-2 0  9995,2 51884  53.2175 353.0889 0001068  92.0925 268.0189 15.08869200 54045,6917.791,95.436,540.395,538.917,0.0
51884.0,STARLINK-3577,PAYLOAD,2023-02-13 04:39:18,15.08829305,0.0001299,53.2175,349.2254,71.149,288.9643,0.0015017,0.00023685,0.0,0 STARLINK-3577,1 51884U 22022AJ  23044.19396422  .00023685  00000-0  15017-2 0  9993,2 51884  53.2175 349.2254 0001299  71.1490 288.9643 15.08829305 54171,6917.913,95.438,540.677,538.879,0.0
51884.0,STARLINK-3577,PAYLOAD,2023-02-14 02:54:42,15.08855785,0.0001269,53.2189,345.0602,70.4749,289.638,0.00097869,0.00015329,0.0,0 STARLINK-3577,1 51884U 22022AJ  23045.12132171  .00015329  00000-0  97869-3 0  9998,2 51884  53.2189 345.0602 0001269  70.4749 289.6380 15.08855785 54316,6917.832,95.437,540.575,538.819,0.0
51884.0,STARLINK-3577,PAYLOAD,2023-02-14 12:27:01,15.08836033,0.0001965,53.2191,343.2765,85.2915,274.8302,0.00022992,3.373e-05,0.0,0 STARLINK-3577,1 51884U 22022AJ  23045.51876261  .00003373  00000-0  22992-3 0  9997,2 51884  53.2191 343.2765 0001965  85.2915 274.8302 15.08836033 54372,6917.893,95.438,541.117,538.398,0.0
51884.0,STARLINK-3577,PAYLOAD,2023-02-15 05:56:15,15.08865125,0.0001257,53.2182,340.005,98.2194,261.8941,0.0007658,0.00011929,0.0,0 STARLINK-3577,1 51884U 22022AJ  23046.24739633  .00011929  00000-0  76580-3 0  9997,2 51884  53.2182 340.0050 0001257  98.2194 261.8941 15.08865125 54482,6917.804,95.436,540.538,538.799,0.0
51884.0,STARLINK-3577,PAYLOAD,2023-02-15 23:25:29,15.08853071,0.0001424,53.2186,336.7337,107.102,253.0128,0.00041499,6.325e-05,0.0,0 STARLINK-3577,1 51884U 22022AJ  23046.97603671  .00006325  00000-0  41499-3 0  9994,2 51884  53.2186 336.7337 0001424 107.1020 253.0128 15.08853071 54599,6917.84,95.437,540.691,538.72,0.0
51884.0,STARLINK-3577,PAYLOAD,2023-02-16 02:36:15,15.08872309,0.0001261,53.2178,336.138,91.4416,268.6721,0.0011983,0.00018851,0.0,0 STARLINK-3577,1 51884U 22022AJ  23047.10851457  .00018851  00000-0  11983-2 0  9998,2 51884  53.2178 336.1380 0001261  91.4416 268.6721 15.08872309 54614,6917.782,95.436,540.519,538.774,0.0
51884.0,STARLINK-3577,PAYLOAD,2023-02-16 23:16:16,15.08839572,0.0001421,53.2174,332.274,142.4044,217.7048,0.00029288,4.376e-05,0.0,0 STARLINK-3577,1 51884U 22022AJ  23047.96963800  .00004376  00000-0  29288-3 0  9993,2 51884  53.2174 332.2740 0001421 142.4044 217.7048 15.08839572 54745,6917.882,95.438,540.73,538.764,0.0
51884.0,STARLINK-3577,PAYLOAD,2023-02-17 11:59:23,15.08814193,0.0002281,53.2173,329.8955,77.27,282.8547,4.8618e-05,4.85e-06,0.0,0 STARLINK-3577,1 51884U 22022AJ  23048.49957492  .00000485  00000-0  48618-4 0  9998,2 51884  53.2173 329.8955 0002281  77.2700 282.8547 15.08814193 54821,6917.959,95.439,541.402,538.246,0.0
51884.0,STARLINK-3577,PAYLOAD,2023-02-18 00:42:29,15.08800976,0.0002166,53.218,327.5148,64.192,295.9295,0.00058438,9.015e-05,0.0,0 STARLINK-3577,1 51884U 22022AJ  23049.02950633  .00009015  00000-0  58438-3 0  9996,2 51884  53.2180 327.5148 0002166  64.1920 295.9295 15.08800976 54907,6918.0,95.44,541.363,538.366,0.0
51884.0,STARLINK-3577,PAYLOAD,2023-02-18 11:50:11,15.08830746,0.0001331,53.2174,325.4341,69.763,290.3505,0.00099053,0.00015507,0.0,0 STARLINK-3577,1 51884U 22022AJ  23049.49318357  .00015507  00000-0  99053-3 0  9999,2 51884  53.2174 325.4341 0001331  69.7630 290.3505 15.08830746 54972,6917.909,95.438,540.694,538.853,0.0
51884.0,STARLINK-3577,PAYLOAD,2023-02-19 00:33:17,15.08817695,0.0001757,53.2181,323.0555,75.3597,284.759,0.00017626,2.517e-05,0.0,0 STARLINK-3577,1 51884U 22022AJ  23050.02311501  .00002517  00000-0  17626-3 0  9997,2 51884  53.2181 323.0555 0001757  75.3597 284.7590 15.08817695 55057,6917.949,95.439,541.029,538.598,0.0
51884.0,STARLINK-3577,PAYLOAD,2023-02-19 11:40:58,15.08849196,0.0001538,53.2176,320.9754,66.7414,293.374,0.00069591,0.00010808,0.0,0 STARLINK-3577,1 51884U 22022AJ  23050.48678838  .00010808  00000-0  69591-3 0  9996,2 51884  53.2176 320.9754 0001538  66.7414 293.3740 15.08849196 55129,6917.852,95.437,540.781,538.653,0.0
51884.0,STARLINK-3577,PAYLOAD,2023-02-20 00:24:02,15.08879856,0.0001583,53.2167,318.5955,60.0408,300.0741,0.0010974,0.00017239,0.0,0 STARLINK-3577,1 51884U 22022AJ  23051.01669455  .00017239  00000-0  10974-2 0  9996,2 51884  53.2167 318.5955 0001583  60.0408 300.0741 15.08879856 55207,6917.759,95.435,540.719,538.528,0.0
51884.0,STARLINK-3577,PAYLOAD,2023-02-20 22:39:25,15.08864704,0.0001233,53.2178,314.4329,86.4873,273.626,-2.6371e-06,-3.3e-06,0.0,0 STARLINK-3577,1 51884U 22022AJ  23051.94404144 -.00000330  00000-0 -26371-5 0  9997,2 51884  53.2178 314.4329 0001233  86.4873 273.6260 15.08864704 55341,6917.805,95.436,540.523,538.817,0.0
51884.0,STARLINK-3577,PAYLOAD,2023-02-21 09:47:07,15.08857215,0.0001661,53.2176,312.3479,62.6167,297.4994,-0.00025725,-4.382e-05,0.0,0 STARLINK-3577,1 51884U 22022AJ  23052.40772122 -.00004382  00000-0 -25725-3 0  9994,2 51884  53.2176 312.3479 0001661  62.6167 297.4994 15.08857215 55414,6917.828,95.436,540.842,538.544,0.0
51884.0,STARLINK-3577,PAYLOAD,2023-02-21 20:54:48,15.08854629,0.0001502,53.2168,310.2693,87.1973,272.9191,-5.6405e-05,-1.186e-05,0.0,0 STARLINK-3577,1 51884U 22022AJ  23052.87139906 -.00001186  00000-0 -56405-4 0  9991,2 51884  53.2168 310.2693 0001502  87.1973 272.9191 15.08854629 55481,6917.836,95.437,540.74,538.662,0.0
51884.0,STARLINK-3577,PAYLOAD,2023-02-22 03:16:21,15.08866309,0.0001501,53.2166,309.0811,87.9661,272.1503,0.00096765,0.00015157,0.0,0 STARLINK-3577,1 51884U 22022AJ  23053.13635592  .00015157  00000-0  96765-3 0  9996,2 51884  53.2166 309.0811 0001501  87.9661 272.1503 15.08866309 55520,6917.8,95.436,540.703,538.627,0.0
51884.0,STARLINK-3577,PAYLOAD,2023-02-22 17:34:50,15.08832404,0.000138,53.2162,306.4009,98.039,262.0759,0.00016953,2.411e-05,0.0,0 STARLINK-3577,1 51884U 22022AJ  23053.73252585  .00002411  00000-0  16953-3 0  9999,2 51884  53.2162 306.4009 0001380  98.0390 262.0759 15.08832404 55613,6917.904,95.438,540.723,538.814,0.0
51884.0,STARLINK-3577,PAYLOAD,2023-02-22 22:20:59,15.08825645,0.0001116,53.2158,305.508,90.8083,269.3037,-0.00017485,-3.068e-05,0.0,0 STARLINK-3577,1 51884U 22022AJ  23053.93124830 -.00003068  00000-0 -17485-3 0  9994,2 51884  53.2158 305.5080 0001116  90.8083 269.3037 15.08825645 55644,6917.924,95.438,540.561,539.017,0.0
51884.0,STARLINK-3577,PAYLOAD,2023-02-22 23:56:23,15.08826891,0.0001005,53.2168,305.2136,74.7348,285.3755,-7.6544e-06,-4.09e-06,0.0,0 STARLINK-3577,1 51884U 22022AJ  23053.99748943 -.00000409  00000-0 -76544-5 0  9996,2 51884  53.2168 305.2136 0001005  74.7348 285.3755 15.08826891 55656,6917.92,95.438,540.481,539.09,0.0
51884.0,STARLINK-3577,PAYLOAD,2023-02-23 17:25:37,15.08848126,0.0001266,53.2165,301.9455,88.7049,271.4089,0.00074348,0.00011567,0.0,0 STARLINK-3577,1 51884U 22022AJ  23054.72613089  .00011567  00000-0  74348-3 0  9993,2 51884  53.2165 301.9455 0001266  88.7049 271.4089 15.08848126 55765,6917.856,95.437,540.596,538.845,0.0
